{"type": "FeatureCollection", "features": [ {"type": "Feature", "properties": {"norad_id": 30689, "name": "FENGYUN 1C DEB", "group": "fengyun-1c-debris", "lat": 4.521307468496743, "lon": -32.90472673516326, "alt_km": 887.3090054695567, "timestamp": "2025-12-07T09:35:10.068443+00:00", "meta": {"OBJECT_NAME": "FENGYUN 1C DEB", "OBJECT_ID": "1999-025AQX", "EPOCH": "2025-12-06T21:57:28.931616", "MEAN_MOTION": 14.11754712, "ECCENTRICITY": 0.01116317, "INCLINATION": 98.7077, "RA_OF_ASC_NODE": 327.3193, "ARG_OF_PERICENTER": 119.7273, "MEAN_ANOMALY": 305.1119, "EPHEMERIS_TYPE": 0, "CLASSIFICATION_TYPE": "U", "NORAD_CAT_ID": 30689, "ELEMENT_SET_NO": 999, "REV_AT_EPOCH": 96808, "BSTAR": 0.00058941378, "MEAN_MOTION_DOT": 1.097e-05, "MEAN_MOTION_DDOT": 0}, "tle": {"line1": "1 30689U 99025AQX 25340.91491819  .00001097  00000+0  58941-3 0  9993", "line2": "2 30689  98.7077 327.3193 0111631 119.7273 305.1119 14.11754712968081"}}, "geometry": {"type": "Point", "coordinates": [-32.90472673516326, 4.521307468496743]}}, {"type": "Feature", "properties": {"norad_id": 30690, "name": "FENGYUN 1C DEB", "group": "fengyun-1c-debris", "lat": -53.90275572767117, "lon": 78.98564426501613, "alt_km": 954.2928344485663, "timestamp": "2025-12-07T09:35:10.068454+00:00", "meta": {"OBJECT_NAME": "FENGYUN 1C DEB", "OBJECT_ID": "1999-025AQY", "EPOCH": "2025-12-06T17:22:28.245792", "MEAN_MOTION": 14.02290311, "ECCENTRICITY": 0.01046946, "INCLINATION": 99.1594, "RA_OF_ASC_NODE": 271.0907, "ARG_OF_PERICENTER": 92.4348, "MEAN_ANOMALY": 333.5697, "EPHEMERIS_TYPE": 0, "CLASSIFICATION_TYPE": "U", "NORAD_CAT_ID": 30690, "ELEMENT_SET_NO": 999, "REV_AT_EPOCH": 95623, "BSTAR": 0.0020520943, "MEAN_MOTION_DOT": 3.257e-05, "MEAN_MOTION_DDOT": 0}, "tle": {"line1": "1 30690U 99025AQY 25340.72393803  .00003257  00000+0  20521-2 0  9990", "line2": "2 30690  99.1594 271.0907 0104694  92.4348 333.5697 14.02290311956231"}}, "geometry": {"type": "Point", "coordinates": [78.98564426501613, -53.90275572767117]}}, {"type": "Feature", "properties": {"norad_id": 30691, "name": "FENGYUN 1C DEB", "group": "fengyun-1c-debris", "lat": 61.65320095934805, "lon": -170.29714874456926, "alt_km": 990.2847995215934, "timestamp": "2025-12-07T09:35:10.068464+00:00", "meta": {"OBJECT_NAME": "FENGYUN 1C DEB", "OBJECT_ID": "1999-025AQZ", "EPOCH": "2025-12-05T12:49:07.910112", "MEAN_MOTION": 13.8940125, "ECCENTRICITY": 0.01391324, "INCLINATION": 98.7425, "RA_OF_ASC_NODE": 351.379, "ARG_OF_PERICENTER": 252.9176, "MEAN_ANOMALY": 260.4408, "EPHEMERIS_TYPE": 0, "CLASSIFICATION_TYPE": "U", "NORAD_CAT_ID": 30691, "ELEMENT_SET_NO": 999, "REV_AT_EPOCH": 95016, "BSTAR": 0.0017336921, "MEAN_MOTION_DOT": 2.245e-05, "MEAN_MOTION_DDOT": 0}, "tle": {"line1": "1 30691U 99025AQZ 25339.53411933  .00002245  00000+0  17337-2 0  9990", "line2": "2 30691  98.7425 351.3790 0139132 252.9176 260.4408 13.89401250950163"}}, "geometry": {"type": "Point", "coordinates": [-170.29714874456926, 61.65320095934805]}}, {"type": "Feature", "properties": {"norad_id": 30693, "name": "FENGYUN 1C DEB", "group": "fengyun-1c-debris", "lat": 44.57162571395413, "lon": 155.34486760355557, "alt_km": 830.2640653300195, "timestamp": "2025-12-07T09:35:10.068475+00:00", "meta": {"OBJECT_NAME": "FENGYUN 1C DEB", "OBJECT_ID": "1999-025ARB", "EPOCH": "2025-12-06T21:03:20.705472", "MEAN_MOTION": 14.13276045, "ECCENTRICITY": 0.00290129, "INCLINATION": 98.6856, "RA_OF_ASC_NODE": 326.1769, "ARG_OF_PERICENTER": 184.1495, "MEAN_ANOMALY": 175.9441, "EPHEMERIS_TYPE": 0, "CLASSIFICATION_TYPE": "U", "NORAD_CAT_ID": 30693, "ELEMENT_SET_NO": 999, "REV_AT_EPOCH": 96852, "BSTAR": 0.0005386832, "MEAN_MOTION_DOT": 9.71e-06, "MEAN_MOTION_DDOT": 0}, "tle": {"line1": "1 30693U 99025ARB 25340.87732298  .00000971  00000+0  53868-3 0  9995", "line2": "2 30693  98.6856 326.1769 0029012 184.1495 175.9441 14.13276045968529"}}, "geometry": {"type": "Point", "coordinates": [155.34486760355557, 44.57162571395413]}}, {"type": "Feature", "properties": {"norad_id": 30694, "name": "FENGYUN 1C DEB", "group": "fengyun-1c-debris", "lat": 65.29122544132554, "lon": -73.3941208864085, "alt_km": 641.2008149265348, "timestamp": "2025-12-07T09:35:10.068485+00:00", "meta": {"OBJECT_NAME": "FENGYUN 1C DEB", "OBJECT_ID": "1999-025ARC", "EPOCH": "2025-12-06T20:21:39.111840", "MEAN_MOTION": 14.86175997, "ECCENTRICITY": 0.01315426, "INCLINATION": 99.0468, "RA_OF_ASC_NODE": 306.2387, "ARG_OF_PERICENTER": 313.7287, "MEAN_ANOMALY": 45.3091, "EPHEMERIS_TYPE": 0, "CLASSIFICATION_TYPE": "U", "NORAD_CAT_ID": 30694, "ELEMENT_SET_NO": 999, "REV_AT_EPOCH": 8, "BSTAR": 0.002897845, "MEAN_MOTION_DOT": 0.00029803, "MEAN_MOTION_DDOT": 0}, "tle": {"line1": "1 30694U 99025ARC 25340.84836935  .00029803  00000+0  28978-2 0  9994", "line2": "2 30694  99.0468 306.2387 0131542 313.7287  45.3091 14.86175997    83"}}, "geometry": {"type": "Point", "coordinates": [-73.3941208864085, 65.29122544132554]}}, {"type": "Feature", "properties": {"norad_id": 30696, "name": "FENGYUN 1C DEB", "group": "fengyun-1c-debris", "lat": 79.69756757220667, "lon": -23.788749024876243, "alt_km": 700.9492964405144, "timestamp": "2025-12-07T09:35:10.068495+00:00", "meta": {"OBJECT_NAME": "FENGYUN 1C DEB", "OBJECT_ID": "1999-025ARE", "EPOCH": "2025-12-06T15:30:58.991040", "MEAN_MOTION": 14.44707458, "ECCENTRICITY": 0.0089929, "INCLINATION": 98.3891, "RA_OF_ASC_NODE": 29.7425, "ARG_OF_PERICENTER": 144.0098, "MEAN_ANOMALY": 347.3189, "EPHEMERIS_TYPE": 0, "CLASSIFICATION_TYPE": "U", "NORAD_CAT_ID": 30696, "ELEMENT_SET_NO": 999, "REV_AT_EPOCH": 98216, "BSTAR": 0.0015143869, "MEAN_MOTION_DOT": 5.476e-05, "MEAN_MOTION_DDOT": 0}, "tle": {"line1": "1 30696U 99025ARE 25340.64651610  .00005476  00000+0  15144-2 0  9990", "line2": "2 30696  98.3891  29.7425 0089929 144.0098 347.3189 14.44707458982161"}}, "geometry": {"type": "Point", "coordinates": [-23.788749024876243, 79.69756757220667]}}, {"type": "Feature", "properties": {"norad_id": 30697, "name": "FENGYUN 1C DEB", "group": "fengyun-1c-debris", "lat": 80.57087153032616, "lon": -70.95367773443002, "alt_km": 858.2257269678294, "timestamp": "2025-12-07T09:35:10.068506+00:00", "meta": {"OBJECT_NAME": "FENGYUN 1C DEB", "OBJECT_ID": "1999-025ARF", "EPOCH": "2025-12-06T15:10:47.347680", "MEAN_MOTION": 14.13465842, "ECCENTRICITY": 0.00879183, "INCLINATION": 98.9068, "RA_OF_ASC_NODE": 37.5008, "ARG_OF_PERICENTER": 202.3488, "MEAN_ANOMALY": 311.3588, "EPHEMERIS_TYPE": 0, "CLASSIFICATION_TYPE": "U", "NORAD_CAT_ID": 30697, "ELEMENT_SET_NO": 999, "REV_AT_EPOCH": 96174, "BSTAR": 0.0028462548, "MEAN_MOTION_DOT": 5.514e-05, "MEAN_MOTION_DDOT": 0}, "tle": {"line1": "1 30697U 99025ARF 25340.63249245  .00005514  00000+0  28463-2 0  9998", "line2": "2 30697  98.9068  37.5008 0087918 202.3488 311.3588 14.13465842961744"}}, "geometry": {"type": "Point", "coordinates": [-70.95367773443002, 80.57087153032616]}}, {"type": "Feature", "properties": {"norad_id": 30699, "name": "FENGYUN 1C DEB", "group": "fengyun-1c-debris", "lat": -56.718168543080694, "lon": 114.82085943744909, "alt_km": 740.8518538470735, "timestamp": "2025-12-07T09:35:10.068516+00:00", "meta": {"OBJECT_NAME": "FENGYUN 1C DEB", "OBJECT_ID": "1999-025ARH", "EPOCH": "2025-12-06T13:56:08.973024", "MEAN_MOTION": 14.46779267, "ECCENTRICITY": 0.00039572, "INCLINATION": 99.3112, "RA_OF_ASC_NODE": 99.4479, "ARG_OF_PERICENTER": 268.7507, "MEAN_ANOMALY": 91.3229, "EPHEMERIS_TYPE": 0, "CLASSIFICATION_TYPE": "U", "NORAD_CAT_ID": 30699, "ELEMENT_SET_NO": 999, "REV_AT_EPOCH": 97524, "BSTAR": 0.0040314048, "MEAN_MOTION_DOT": 0.00014576, "MEAN_MOTION_DDOT": 0}, "tle": {"line1": "1 30699U 99025ARH 25340.58065941  .00014576  00000+0  40314-2 0  9990", "line2": "2 30699  99.3112  99.4479 0003957 268.7507  91.3229 14.46779267975241"}}, "geometry": {"type": "Point", "coordinates": [114.82085943744909, -56.718168543080694]}}, {"type": "Feature", "properties": {"norad_id": 30700, "name": "FENGYUN 1C DEB", "group": "fengyun-1c-debris", "lat": 61.10343469361667, "lon": -154.331484054495, "alt_km": 759.2801325315686, "timestamp": "2025-12-07T09:35:10.068526+00:00", "meta": {"OBJECT_NAME": "FENGYUN 1C DEB", "OBJECT_ID": "1999-025ARJ", "EPOCH": "2025-12-06T12:47:40.808544", "MEAN_MOTION": 14.23786127, "ECCENTRICITY": 0.00868519, "INCLINATION": 98.5422, "RA_OF_ASC_NODE": 9.0254, "ARG_OF_PERICENTER": 161.2512, "MEAN_ANOMALY": 199.1899, "EPHEMERIS_TYPE": 0, "CLASSIFICATION_TYPE": "U", "NORAD_CAT_ID": 30700, "ELEMENT_SET_NO": 999, "REV_AT_EPOCH": 97481, "BSTAR": 0.00032600599, "MEAN_MOTION_DOT": 7.33e-06, "MEAN_MOTION_DDOT": 0}, "tle": {"line1": "1 30700U 99025ARJ 25340.53311121  .00000733  00000+0  32601-3 0  9993", "line2": "2 30700  98.5422   9.0254 0086851 161.2512 199.1899 14.23786127974814"}}, "geometry": {"type": "Point", "coordinates": [-154.331484054495, 61.10343469361667]}}, {"type": "Feature", "properties": {"norad_id": 30701, "name": "FENGYUN 1C DEB", "group": "fengyun-1c-debris", "lat": -37.3630400946059, "lon": 29.55855942564813, "alt_km": 875.6320134467624, "timestamp": "2025-12-07T09:35:10.068536+00:00", "meta": {"OBJECT_NAME": "FENGYUN 1C DEB", "OBJECT_ID": "1999-025ARK", "EPOCH": "2025-12-06T20:59:37.781376", "MEAN_MOTION": 14.13933954, "ECCENTRICITY": 0.0035625, "INCLINATION": 98.7191, "RA_OF_ASC_NODE": 22.3179, "ARG_OF_PERICENTER": 118.9892, "MEAN_ANOMALY": 54.1966, "EPHEMERIS_TYPE": 0, "CLASSIFICATION_TYPE": "U", "NORAD_CAT_ID": 30701, "ELEMENT_SET_NO": 999, "REV_AT_EPOCH": 97036, "BSTAR": 3.3347554e-05, "MEAN_MOTION_DOT": 2.1e-07, "MEAN_MOTION_DDOT": 0}, "tle": {"line1": "1 30701U 99025ARK 25340.87474284  .00000021  00000+0  33348-4 0  9991", "line2": "2 30701  98.7191  22.3179 0035625 118.9892  54.1966 14.13933954970369"}}, "geometry": {"type": "Point", "coordinates": [29.55855942564813, -37.3630400946059]}}]}